NORAD_CAT_ID,OBJECT_NAME,OBJECT_TYPE,EPOCH,MEAN_MOTION,ECCENTRICITY,INCLINATION,RA_OF_ASC_NODE,ARG_OF_PERICENTER,MEAN_ANOMALY,BSTAR,MEAN_MOTION_DOT,MEAN_MOTION_DDOT,TLE_LINE0,TLE_LINE1,TLE_LINE2,SEMIMAJOR_AXIS,PERIOD,APOGEE,PERIGEE,DECAYED
50815.0,STARLINK-3234,PAYLOAD,2022-01-11 20:00:01,15.94577951,0.0054759,53.2176,175.5824,179.7774,213.6669,-0.0020191,-0.00917756,0.00026885,0 STARLINK-3234,1 50815U 22001N   22011.83334491 -.00917756  26885-3 -20191-2 0  9999,2 50815  53.2176 175.5824 0054759 179.7774 213.6669 15.94577951  2074,6667.628000000002,90.306,326.004,252.981,0.0
50815.0,STARLINK-3234,PAYLOAD,2022-01-12 06:00:00,15.93827477,0.0051267,53.2174,173.4535,181.499,84.655,-0.0020604,-0.00880998,0.00024787,0 STARLINK-3234,1 50815U 22001N   22012.25001157 -.00880998  24787-3 -20604-2 0  9991,2 50815  53.2174 173.4535 0051267 181.4990  84.6550 15.93827477  2131,6669.721,90.349,325.779,257.392,0.0
50815.0,STARLINK-3234,PAYLOAD,2022-01-12 14:00:01,15.93263179,0.0048207,53.2177,171.7545,182.8154,196.6997,-0.0022673,-0.00924728,0.00026899,0 STARLINK-3234,1 50815U 22001N   22012.58334491 -.00924728  26899-3 -22673-2 0  9991,2 50815  53.2177 171.7545 0048207 182.8154 196.6997 15.93263179  1437,6671.295,90.381,325.321,261.0,0.0
50815.0,STARLINK-3234,PAYLOAD,2022-01-12 16:00:00,15.93092719,0.0047462,53.2174,171.3303,182.8697,314.8858,-0.0021729,-0.0087525,0.00024318,0 STARLINK-3234,1 50815U 22001N   22012.66667824 -.00875250  24318-3 -21729-2 0  9999,2 50815  53.2174 171.3303 0047462 182.8697 314.8858 15.93092719  2202,6671.771,90.39,325.302,261.971,0.0
50815.0,STARLINK-3234,PAYLOAD,2022-01-12 22:00:00,15.92653317,0.0045358,53.2173,170.0574,185.0831,307.1046,-0.0022462,-0.00874718,0.00024186,0 STARLINK-3234,1 50815U 22001N   22012.91667824 -.00874718  24186-3 -22462-2 0  9993,2 50815  53.2173 170.0574 0045358 185.0831 307.1046 15.92653317  2248,6672.998000000001,90.415,325.131,264.596,0.0
50815.0,STARLINK-3234,PAYLOAD,2022-01-13 14:00:01,15.91503432,0.0039451,53.2174,166.66400000000004,188.9349,166.4647,-0.0025795,-0.00920996,0.00026246,0 STARLINK-3234,1 50815U 22001N   22013.58334491 -.00920996  26246-3 -25795-2 0  9999,2 50815  53.2174 166.6640 0039451 188.9349 166.4647 15.91503432  1598,6676.212,90.48,324.415,271.73900000000003,0.0
50815.0,STARLINK-3234,PAYLOAD,2022-01-13 20:00:01,15.91061405,0.0037522,53.2174,165.3948,190.6447,157.7357,-0.0026451,-0.00916078,0.00025883,0 STARLINK-3234,1 50815U 22001N   22013.83334491 -.00916078  25883-3 -26451-2 0  9999,2 50815  53.2174 165.3948 0037522 190.6447 157.7357 15.91061405  2389,6677.449000000001,90.506,324.369,274.258,0.0
50815.0,STARLINK-3234,PAYLOAD,2022-01-13 22:00:00,15.90905374,0.0036821,53.2172,164.9712,190.9444,275.0115,-0.002611,-0.00894844,0.00024773,0 STARLINK-3234,1 50815U 22001N   22013.91667824 -.00894844  24773-3 -26110-2 0  9992,2 50815  53.2172 164.9712 0036821 190.9444 275.0115 15.90905374  1647,6677.885,90.514,324.339,275.161,0.0
50815.0,STARLINK-3234,PAYLOAD,2022-01-14 06:00:00,15.90306527,0.0033989,53.2175,163.2765,193.4365,22.3746,-0.0026386,-0.0086842999999999,0.00023336,0 STARLINK-3234,1 50815U 22001N   22014.25001157 -.00868430  23336-3 -26386-2 0  9992,2 50815  53.2175 163.2765 0033989 193.4365  22.3746 15.90306527  2450,6679.561,90.549,324.13,278.723,0.0
50815.0,STARLINK-3234,PAYLOAD,2022-01-14 14:00:01,15.89742038,0.0031269,53.2176,161.5867,195.7617,129.1861,-0.0028809,-0.00912926,0.000254,0 STARLINK-3234,1 50815U 22001N   22014.58334491 -.00912926  25400-3 -28809-2 0  9994,2 50815  53.2176 161.5867 0031269 195.7617 129.1861 15.89742038  2508,6681.143,90.581,323.899,282.116,0.0
50815.0,STARLINK-3234,PAYLOAD,2022-01-14 22:00:00,15.89158008,0.0028579,53.2171,159.898,198.9014,234.4859,-0.003,-0.00915849,0.00025406,0 STARLINK-3234,1 50815U 22001N   22014.91667824 -.00915849  25406-3 -30000-2 0  9999,2 50815  53.2171 159.8980 0028579 198.9014 234.4859 15.89158008  2566,6682.779,90.614,323.743,285.546,0.0
50815.0,STARLINK-3234,PAYLOAD,2022-01-15 06:00:00,15.88551414,0.0025824,53.2172,158.2078,201.7322,339.4007,-0.0029696,-0.00873539,0.00023195,0 STARLINK-3234,1 50815U 22001N   22015.25001157 -.00873539  23195-3 -29696-2 0  9999,2 50815  53.2172 158.2078 0025824 201.7322 339.4007 15.88551414  2617,6684.48,90.649,323.607,289.083,0.0
50815.0,STARLINK-3234,PAYLOAD,2022-01-15 14:00:01,15.87976235,0.0023187,53.2174,156.5225,205.1554,83.072,-0.0031551,-0.00896284,0.00024166,0 STARLINK-3234,1 50815U 22001N   22015.58335648 -.00896284  24166-3 -31551-2 0  9994,2 50815  53.2174 156.5225 0023187 205.1554  83.0720 15.87976235  2669,6686.094,90.681,323.463,292.456,0.0
50815.0,STARLINK-3234,PAYLOAD,2022-01-15 22:00:01,15.87404113,0.0020722,53.2171,154.8377,209.6194,184.9314,-0.0033633,-0.00923917,0.00025392,0 STARLINK-3234,1 50815U 22001N   22015.91668981 -.00923917  25392-3 -33633-2 0  9999,2 50815  53.2171 154.8377 0020722 209.6194 184.9314 15.87404113  2724,6687.701,90.714,323.4240000000001,295.708,0.0
50815.0,STARLINK-3234,PAYLOAD,2022-01-16 06:00:00,15.86801599,0.001778,53.2172,153.1521,214.7894,285.3272,-0.0033542,-0.00890303,0.00023618,0 STARLINK-3234,1 50815U 22001N   22016.25001157 -.00890303  23618-3 -33542-2 0  9993,2 50815  53.2172 153.1521 0017780 214.7894 285.3272 15.86801599  2774,6689.394,90.749,323.152,299.365,0.0
50815.0,STARLINK-3234,PAYLOAD,2022-01-16 14:00:01,15.8621006,0.0015578,53.2173,151.4715,220.7971,24.2412,-0.0034191,-0.00806377,0.0,0 STARLINK-3234,1 50815U 22001N   22016.58334491 -.00806377  00000-0 -34191-2 0  9995,2 50815  53.2173 151.4715 0015578 220.7971  24.2412 15.86210060  2073,6691.057,90.782,323.345,302.498,0.0
50815.0,STARLINK-3234,PAYLOAD,2022-01-16 22:00:00,15.85644387,0.0013567,53.2171,149.791,229.142,120.1051,-0.0036861,-0.00839767,0.0,0 STARLINK-3234,1 50815U 22001N   22016.91667824 -.00839767  00000-0 -36861-2 0  9996,2 50815  53.2171 149.7910 0013567 229.1420 120.1051 15.85644387  2129,6692.648,90.815,323.593,305.433,0.0
50815.0,STARLINK-3234,PAYLOAD,2022-01-17 06:00:00,15.85053901,0.0011319,53.2173,148.1095,239.6393,213.1238,-0.0037717,-0.0083290999999999,0.0,0 STARLINK-3234,1 50815U 22001N   22017.25001157 -.00832910  00000-0 -37717-2 0  9999,2 50815  53.2173 148.1095 0011319 239.6393 213.1238 15.85053901  2931,6694.31,90.849,323.752,308.598,0.0
50815.0,STARLINK-3234,PAYLOAD,2022-01-17 14:00:01,15.84452072,0.0009805,53.2175,146.4332,252.7348,302.8412,-0.0037436,-0.00804067,0.0,0 STARLINK-3234,1 50815U 22001N   22017.58334491 -.00804067  00000-0 -37436-2 0  9995,2 50815  53.2175 146.4332 0009805 252.7348 302.8412 15.84452072  2235,6696.005,90.883,324.435,311.305,0.0
50815.0,STARLINK-3234,PAYLOAD,2022-01-17 22:00:00,15.83872799,0.0008568,53.2171,144.7568,263.6966,33.9809,-0.0039033,-0.00813372,0.0,0 STARLINK-3234,1 50815U 22001N   22017.91667824 -.00813372  00000-0 -39033-2 0  9995,2 50815  53.2171 144.7568 0008568 263.6966  33.9809 15.83872799  3037,6697.638000000001,90.916,325.241,313.764,0.0
50815.0,STARLINK-3234,PAYLOAD,2022-01-18 14:00:01,15.82715402,0.0002836,53.2171,141.4082,263.4035,236.3663,-0.0042833,-0.00838465,0.0,0 STARLINK-3234,1 50815U 22001N   22018.58334491 -.00838465  00000-0 -42833-2 0  9992,2 50815  53.2171 141.4082 0002836 263.4035 236.3663 15.82715402  3144,6700.901999999999,90.983,324.668,320.867,0.0
50815.0,STARLINK-3234,PAYLOAD,2022-01-18 22:00:00,15.82117446,0.0001409999999999,53.2172,139.7358,206.4734,33.293,-0.0042854999999999,-0.00817009,0.0,0 STARLINK-3234,1 50815U 22001N   22018.91667824 -.00817009  00000-0 -42855-2 0  9993,2 50815  53.2172 139.7358 0001410 206.4734  33.2930 15.82117446  2448,6702.590999999999,91.017,325.401,323.511,0.0
50815.0,STARLINK-3234,PAYLOAD,2022-01-19 14:00:01,15.80830488,0.0001269,53.2172,136.39600000000002,77.2997,0.4036,-0.003672,-0.00670498,0.0,0 STARLINK-3234,1 50815U 22001N   22019.58334491 -.00670498  00000-0 -36720-2 0  9991,2 50815  53.2172 136.3960 0001269  77.2997   0.4036 15.80830488  2558,6706.228,91.091,328.944,327.242,0.0
50815.0,STARLINK-3234,PAYLOAD,2022-01-19 22:00:00,15.80364284,0.0001115,53.2172,134.72799999999998,81.9614,93.5559,-0.0046955,-0.00824042,0.0,0 STARLINK-3234,1 50815U 22001N   22019.91667824 -.00824042  00000-0 -46955-2 0  9994,2 50815  53.2172 134.7280 0001115  81.9614  93.5559 15.80364284  3351,6707.547,91.118,330.16,328.664,0.0
50815.0,STARLINK-3234,PAYLOAD,2022-01-20 14:00:01,15.79092158,9.74e-05,53.217,131.39700000000002,72.6746,296.5458,-0.0041318,-0.00694432,0.0,0 STARLINK-3234,1 50815U 22001N   22020.58334491 -.00694432  00000-0 -41318-2 0  9996,2 50815  53.2170 131.3970 0000974  72.6746 296.5458 15.79092158  2711,6711.149,91.192,333.667,332.36,0.0
50815.0,STARLINK-3234,PAYLOAD,2022-01-20 22:00:00,15.78606249,0.0001046,53.2173,129.7329,73.7683,31.1651,-0.0050783,-0.00822318,0.0,0 STARLINK-3234,1 50815U 22001N   22020.91667824 -.00822318  00000-0 -50783-2 0  9994,2 50815  53.2173 129.7329 0001046  73.7683  31.1651 15.78606249  3514,6712.526,91.22,335.093,333.689,0.0
50815.0,STARLINK-3234,PAYLOAD,2022-01-21 14:00:01,15.77358034,0.0001214,53.2172,126.4108,75.3346,219.0613,-0.0046526,-0.00720762,0.0,0 STARLINK-3234,1 50815U 22001N   22021.58334491 -.00720762  00000-0 -46526-2 0  9999,2 50815  53.2172 126.4108 0001214  75.3346 219.0613 15.77358034  2871,6716.066,91.292,338.747,337.116,0.0
50815.0,STARLINK-3234,PAYLOAD,2022-01-21 20:00:01,15.76994549,0.0001103,53.2172,125.1662,75.9278,198.7368,-0.005448,-0.00820507,0.0,0 STARLINK-3234,1 50815U 22001N   22021.83334491 -.00820507  00000-0 -54480-2 0  9993,2 50815  53.2172 125.1662 0001103  75.9278 198.7368 15.76994549  3652,6717.098000000001,91.313,339.704,338.223,0.0
50815.0,STARLINK-3234,PAYLOAD,2022-01-21 22:00:00,15.76847725,9.58e-05,53.2173,124.7511,76.5143,311.4992,-0.0054824,-0.00820263,0.0,0 STARLINK-3234,1 50815U 22001N   22021.91667824 -.00820263  00000-0 -54824-2 0  9992,2 50815  53.2173 124.7511 0000958  76.5143 311.4992 15.76847725  2925,6717.515,91.321,340.024,338.737,0.0
